[
  {
    "COMMENT": "GENERATED VIA SPACETRACK.ORG API",
    "ORIGINATOR": "18 SPCS",
    "NORAD_CAT_ID": "54754",
    "OBJECT_NAME": "SWOT",
    "OBJECT_TYPE": "PAYLOAD",
    "CLASSIFICATION_TYPE": "U",
    "INTLDES": "22173A",
    "EPOCH": "2023-04-24 14:50:21",
    "EPOCH_MICROSECONDS": "471648",
    "MEAN_MOTION": "14.09851299",
    "ECCENTRICITY": "0.0001088",
    "INCLINATION": "77.6046",
    "RA_OF_ASC_NODE": "148.845",
    "ARG_OF_PERICENTER": "211.2713",
    "MEAN_ANOMALY": "148.838",
    "EPHEMERIS_TYPE": "0",
    "ELEMENT_SET_NO": "999",
    "REV_AT_EPOCH": "1819",
    "BSTAR": "0.00011021",
    "MEAN_MOTION_DOT": "0.00000191",
    "MEAN_MOTION_DDOT": "0",
    "FILE": "3893330",
    "TLE_LINE0": "0 SWOT",
    "TLE_LINE1": "1 54754U 22173A   23114.61830407  .00000191  00000-0  11021-3 0  9999",
    "TLE_LINE2": "2 54754  77.6046 148.8450 0001088 211.2713 148.8380 14.09851299 18190",
    "OBJECT_ID": "2022-173A",
    "OBJECT_NUMBER": "54754",
    "SEMIMAJOR_AXIS": "7238.018",
    "PERIOD": "102.138",
    "APOGEE": "860.670",
    "PERIGEE": "859.095",
    "DECAYED": "0"
  },
  {
    "COMMENT": "GENERATED VIA SPACETRACK.ORG API",
    "ORIGINATOR": "18 SPCS",
    "NORAD_CAT_ID": "54754",
    "OBJECT_NAME": "SWOT",
    "OBJECT_TYPE": "PAYLOAD",
    "CLASSIFICATION_TYPE": "U",
    "INTLDES": "22173A",
    "EPOCH": "2023-04-25 12:58:48",
    "EPOCH_MICROSECONDS": "110304",
    "MEAN_MOTION": "14.09851838",
    "ECCENTRICITY": "0.000109",
    "INCLINATION": "77.6045",
    "RA_OF_ASC_NODE": "147.5791",
    "ARG_OF_PERICENTER": "210.9967",
    "MEAN_ANOMALY": "149.1125",
    "EPHEMERIS_TYPE": "0",
    "ELEMENT_SET_NO": "999",
    "REV_AT_EPOCH": "1832",
    "BSTAR": "0.00013936",
    "MEAN_MOTION_DOT": "0.00000242",
    "MEAN_MOTION_DDOT": "0",
    "FILE": "3894092",
    "TLE_LINE0": "0 SWOT",
    "TLE_LINE1": "1 54754U 22173A   23115.54083461  .00000242  00000-0  13936-3 0  9996",
    "TLE_LINE2": "2 54754  77.6045 147.5791 0001090 210.9967 149.1125 14.09851838 18328",
    "OBJECT_ID": "2022-173A",
    "OBJECT_NUMBER": "54754",
    "SEMIMAJOR_AXIS": "7238.016",
    "PERIOD": "102.138",
    "APOGEE": "860.670",
    "PERIGEE": "859.092",
    "DECAYED": "0"
  },
  {
    "COMMENT": "GENERATED VIA SPACETRACK.ORG API",
    "ORIGINATOR": "18 SPCS",
    "NORAD_CAT_ID": "54754",
    "OBJECT_NAME": "SWOT",
    "OBJECT_TYPE": "PAYLOAD",
    "CLASSIFICATION_TYPE": "U",
    "INTLDES": "22173A",
    "EPOCH": "2023-04-26 12:49:26",
    "EPOCH_MICROSECONDS": "3136",
    "MEAN_MOTION": "14.09852334",
    "ECCENTRICITY": "0.0001092",
    "INCLINATION": "77.6044",
    "RA_OF_ASC_NODE": "146.2158",
    "ARG_OF_PERICENTER": "210.7527",
    "MEAN_ANOMALY": "149.3566",
    "EPHEMERIS_TYPE": "0",
    "ELEMENT_SET_NO": "999",
    "REV_AT_EPOCH": "1846",
    "BSTAR": "0.00013589",
    "MEAN_MOTION_DOT": "0.00000236",
    "MEAN_MOTION_DDOT": "0",
    "FILE": "3894260",
    "TLE_LINE0": "0 SWOT",
    "TLE_LINE1": "1 54754U 22173A   23116.53432874  .00000236  00000-0  13589-3 0  9999",
    "TLE_LINE2": "2 54754  77.6044 146.2158 0001092 210.7527 149.3566 14.09852334 18460",
    "OBJECT_ID": "2022-173A",
    "OBJECT_NUMBER": "54754",
    "SEMIMAJOR_AXIS": "7238.014",
    "PERIOD": "102.138",
    "APOGEE": "860.669",
    "PERIGEE": "859.089",
    "DECAYED": "0"
  },
  {
    "COMMENT": "GENERATED VIA SPACETRACK.ORG API",
    "ORIGINATOR": "18 SPCS",
    "NORAD_CAT_ID": "54754",
    "OBJECT_NAME": "SWOT",
    "OBJECT_TYPE": "PAYLOAD",
    "CLASSIFICATION_TYPE": "U",
    "INTLDES": "22173A",
    "EPOCH": "2023-04-26 21:20:22",
    "EPOCH_MICROSECONDS": "387200",
    "MEAN_MOTION": "14.09852495",
    "ECCENTRICITY": "0.0001093",
    "INCLINATION": "77.6044",
    "RA_OF_ASC_NODE": "145.7289",
    "ARG_OF_PERICENTER": "210.4682",
    "MEAN_ANOMALY": "149.6411",
    "EPHEMERIS_TYPE": "0",
    "ELEMENT_SET_NO": "999",
    "REV_AT_EPOCH": "1851",
    "BSTAR": "0.00013393",
    "MEAN_MOTION_DOT": "0.00000233",
    "MEAN_MOTION_DDOT": "0",
    "FILE": "3894261",
    "TLE_LINE0": "0 SWOT",
    "TLE_LINE1": "1 54754U 22173A   23116.88914800  .00000233  00000-0  13393-3 0  9991",
    "TLE_LINE2": "2 54754  77.6044 145.7289 0001093 210.4682 149.6411 14.09852495 18515",
    "OBJECT_ID": "2022-173A",
    "OBJECT_NUMBER": "54754",
    "SEMIMAJOR_AXIS": "7238.014",
    "PERIOD": "102.138",
    "APOGEE": "860.670",
    "PERIGEE": "859.087",
    "DECAYED": "0"
  },
  {
    "COMMENT": "GENERATED VIA SPACETRACK.ORG API",
    "ORIGINATOR": "18 SPCS",
    "NORAD_CAT_ID": "54754",
    "OBJECT_NAME": "SWOT",
    "OBJECT_TYPE": "PAYLOAD",
    "CLASSIFICATION_TYPE": "U",
    "INTLDES": "22173A",
    "EPOCH": "2023-04-27 04:09:07",
    "EPOCH_MICROSECONDS": "489440",
    "MEAN_MOTION": "14.09852645",
    "ECCENTRICITY": "0.0001092",
    "INCLINATION": "77.6044",
    "RA_OF_ASC_NODE": "145.3394",
    "ARG_OF_PERICENTER": "210.4089",
    "MEAN_ANOMALY": "149.7005",
    "EPHEMERIS_TYPE": "0",
    "ELEMENT_SET_NO": "999",
    "REV_AT_EPOCH": "1855",
    "BSTAR": "0.00013343",
    "MEAN_MOTION_DOT": "0.00000232",
    "MEAN_MOTION_DDOT": "0",
    "FILE": "3894468",
    "TLE_LINE0": "0 SWOT",
    "TLE_LINE1": "1 54754U 22173A   23117.17300335  .00000232  00000-0  13343-3 0  9990",
    "TLE_LINE2": "2 54754  77.6044 145.3394 0001092 210.4089 149.7005 14.09852645 18559",
    "OBJECT_ID": "2022-173A",
    "OBJECT_NUMBER": "54754",
    "SEMIMAJOR_AXIS": "7238.013",
    "PERIOD": "102.138",
    "APOGEE": "860.668",
    "PERIGEE": "859.088",
    "DECAYED": "0"
  },
  {
    "COMMENT": "GENERATED VIA SPACETRACK.ORG API",
    "ORIGINATOR": "18 SPCS",
    "NORAD_CAT_ID": "54754",
    "OBJECT_NAME": "SWOT",
    "OBJECT_TYPE": "PAYLOAD",
    "CLASSIFICATION_TYPE": "U",
    "INTLDES": "22173A",
    "EPOCH": "2023-04-27 12:40:03",
    "EPOCH_MICROSECONDS": "868320",
    "MEAN_MOTION": "14.09852785",
    "ECCENTRICITY": "0.0001096",
    "INCLINATION": "77.6043",
    "RA_OF_ASC_NODE": "144.8525",
    "ARG_OF_PERICENTER": "210.3572",
    "MEAN_ANOMALY": "149.7522",
    "EPHEMERIS_TYPE": "0",
    "ELEMENT_SET_NO": "999",
    "REV_AT_EPOCH": "1860",
    "BSTAR": "0.00012749",
    "MEAN_MOTION_DOT": "0.00000221",
    "MEAN_MOTION_DDOT": "0",
    "FILE": "3894751",
    "TLE_LINE0": "0 SWOT",
    "TLE_LINE1": "1 54754U 22173A   23117.52782255  .00000221  00000-0  12749-3 0  9991",
    "TLE_LINE2": "2 54754  77.6043 144.8525 0001096 210.3572 149.7522 14.09852785 18603",
    "OBJECT_ID": "2022-173A",
    "OBJECT_NUMBER": "54754",
    "SEMIMAJOR_AXIS": "7238.013",
    "PERIOD": "102.138",
    "APOGEE": "860.671",
    "PERIGEE": "859.084",
    "DECAYED": "0"
  },
  {
    "COMMENT": "GENERATED VIA SPACETRACK.ORG API",
    "ORIGINATOR": "18 SPCS",
    "NORAD_CAT_ID": "54754",
    "OBJECT_NAME": "SWOT",
    "OBJECT_TYPE": "PAYLOAD",
    "CLASSIFICATION_TYPE": "U",
    "INTLDES": "22173A",
    "EPOCH": "2023-04-28 05:41:56",
    "EPOCH_MICROSECONDS": "612256",
    "MEAN_MOTION": "14.09853128",
    "ECCENTRICITY": "0.0001098",
    "INCLINATION": "77.6043",
    "RA_OF_ASC_NODE": "143.8787",
    "ARG_OF_PERICENTER": "209.7879",
    "MEAN_ANOMALY": "150.3215",
    "EPHEMERIS_TYPE": "0",
    "ELEMENT_SET_NO": "999",
    "REV_AT_EPOCH": "1870",
    "BSTAR": "0.00013083",
    "MEAN_MOTION_DOT": "0.00000227",
    "MEAN_MOTION_DDOT": "0",
    "FILE": "3895334",
    "TLE_LINE0": "0 SWOT",
    "TLE_LINE1": "1 54754U 22173A   23118.23746079  .00000227  00000-0  13083-3 0  9992",
    "TLE_LINE2": "2 54754  77.6043 143.8787 0001098 209.7879 150.3215 14.09853128 18706",
    "OBJECT_ID": "2022-173A",
    "OBJECT_NUMBER": "54754",
    "SEMIMAJOR_AXIS": "7238.011",
    "PERIOD": "102.138",
    "APOGEE": "860.671",
    "PERIGEE": "859.082",
    "DECAYED": "0"
  },
  {
    "COMMENT": "GENERATED VIA SPACETRACK.ORG API",
    "ORIGINATOR": "18 SPCS",
    "NORAD_CAT_ID": "54754",
    "OBJECT_NAME": "SWOT",
    "OBJECT_TYPE": "PAYLOAD",
    "CLASSIFICATION_TYPE": "U",
    "INTLDES": "22173A",
    "EPOCH": "2023-04-28 12:30:41",
    "EPOCH_MICROSECONDS": "705856",
    "MEAN_MOTION": "14.09853266",
    "ECCENTRICITY": "0.0001104",
    "INCLINATION": "77.6042",
    "RA_OF_ASC_NODE": "143.4891",
    "ARG_OF_PERICENTER": "209.6987",
    "MEAN_ANOMALY": "150.4107",
    "EPHEMERIS_TYPE": "0",
    "ELEMENT_SET_NO": "999",
    "REV_AT_EPOCH": "1874",
    "BSTAR": "0.00013001",
    "MEAN_MOTION_DOT": "0.00000226",
    "MEAN_MOTION_DDOT": "0",
    "FILE": "3895770",
    "TLE_LINE0": "0 SWOT",
    "TLE_LINE1": "1 54754U 22173A   23118.52131604  .00000226  00000-0  13001-3 0  9995",
    "TLE_LINE2": "2 54754  77.6042 143.4891 0001104 209.6987 150.4107 14.09853266 18742",
    "OBJECT_ID": "2022-173A",
    "OBJECT_NUMBER": "54754",
    "SEMIMAJOR_AXIS": "7238.011",
    "PERIOD": "102.138",
    "APOGEE": "860.675",
    "PERIGEE": "859.077",
    "DECAYED": "0"
  },
  {
    "COMMENT": "GENERATED VIA SPACETRACK.ORG API",
    "ORIGINATOR": "18 SPCS",
    "NORAD_CAT_ID": "54754",
    "OBJECT_NAME": "SWOT",
    "OBJECT_TYPE": "PAYLOAD",
    "CLASSIFICATION_TYPE": "U",
    "INTLDES": "22173A",
    "EPOCH": "2023-04-29 12:21:19",
    "EPOCH_MICROSECONDS": "519200",
    "MEAN_MOTION": "14.09853698",
    "ECCENTRICITY": "0.0001103",
    "INCLINATION": "77.6042",
    "RA_OF_ASC_NODE": "142.1258",
    "ARG_OF_PERICENTER": "209.3348",
    "MEAN_ANOMALY": "150.7747",
    "EPHEMERIS_TYPE": "0",
    "ELEMENT_SET_NO": "999",
    "REV_AT_EPOCH": "1888",
    "BSTAR": "0.00012781",
    "MEAN_MOTION_DOT": "0.00000222",
    "MEAN_MOTION_DDOT": "0",
    "FILE": "3896517",
    "TLE_LINE0": "0 SWOT",
    "TLE_LINE1": "1 54754U 22173A   23119.51480925  .00000222  00000-0  12781-3 0  9998",
    "TLE_LINE2": "2 54754  77.6042 142.1258 0001103 209.3348 150.7747 14.09853698 18889",
    "OBJECT_ID": "2022-173A",
    "OBJECT_NUMBER": "54754",
    "SEMIMAJOR_AXIS": "7238.009",
    "PERIOD": "102.138",
    "APOGEE": "860.673",
    "PERIGEE": "859.076",
    "DECAYED": "0"
  }
]